{
    "links": {
        "self": "http://www.neowsapp.com/rest/v1/neo/3840697?api_key=iIulBulltgU6a56xZRHN4H3l9WmuAYTsLGpBGhQ2"
    },
    "id": "3840697",
    "neo_reference_id": "3840697",
    "name": "(2019 FW)",
    "designation": "2019 FW",
    "nasa_jpl_url": "http://ssd.jpl.nasa.gov/sbdb.cgi?sstr=3840697",
    "absolute_magnitude_h": 26.1,
    "estimated_diameter": {
        "kilometers": {
            "estimated_diameter_min": 0.0160160338,
            "estimated_diameter_max": 0.0358129403
        },
        "meters": {
            "estimated_diameter_min": 16.0160337979,
            "estimated_diameter_max": 35.8129403019
        },
        "miles": {
            "estimated_diameter_min": 0.0099518989,
            "estimated_diameter_max": 0.0222531225
        },
        "feet": {
            "estimated_diameter_min": 52.5460443254,
            "estimated_diameter_max": 117.4965270602
        }
    },
    "is_potentially_hazardous_asteroid": false,
    "close_approach_data": [
        {
            "close_approach_date": "2017-02-10",
            "close_approach_date_full": "2017-Feb-10 12:10",
            "epoch_date_close_approach": 1486728600000,
            "relative_velocity": {
                "kilometers_per_second": "13.6695961553",
                "kilometers_per_hour": "49210.546159134",
                "miles_per_hour": "30577.5196398241"
            },
            "miss_distance": {
                "astronomical": "0.2974041052",
                "lunar": "115.6901969228",
                "kilometers": "44491020.667175924",
                "miles": "27645438.3065747912"
            },
            "orbiting_body": "Earth"
        },
        {
            "close_approach_date": "2019-03-29",
            "close_approach_date_full": "2019-Mar-29 02:25",
            "epoch_date_close_approach": 1553826300000,
            "relative_velocity": {
                "kilometers_per_second": "6.2295038925",
                "kilometers_per_hour": "22426.2140130994",
                "miles_per_hour": "13934.777257195"
            },
            "miss_distance": {
                "astronomical": "0.0206846885",
                "lunar": "8.0463438265",
                "kilometers": "3094385.341213495",
                "miles": "1922761.891376431"
            },
            "orbiting_body": "Earth"
        },
        {
            "close_approach_date": "2021-01-15",
            "close_approach_date_full": "2021-Jan-15 09:18",
            "epoch_date_close_approach": 1610702280000,
            "relative_velocity": {
                "kilometers_per_second": "3.158842745",
                "kilometers_per_hour": "11371.8338818786",
                "miles_per_hour": "7066.0153362151"
            },
            "miss_distance": {
                "astronomical": "0.4735745722",
                "lunar": "184.2205085858",
                "kilometers": "70845747.287281214",
                "miles": "44021506.0599561932"
            },
            "orbiting_body": "Earth"
        },
        {
            "close_approach_date": "2021-05-11",
            "close_approach_date_full": "2021-May-11 02:36",
            "epoch_date_close_approach": 1620700560000,
            "relative_velocity": {
                "kilometers_per_second": "14.8948495297",
                "kilometers_per_hour": "53621.4583068286",
                "miles_per_hour": "33318.2889129291"
            },
            "miss_distance": {
                "astronomical": "0.3347110574",
                "lunar": "130.2026013286",
                "kilometers": "50072061.252487738",
                "miles": "31113336.1177292644"
            },
            "orbiting_body": "Earth"
        }
    ],
    "orbital_data": {
        "orbit_id": "10",
        "orbit_determination_date": "2019-04-14 10:55:53",
        "first_observation_date": "2019-03-27",
        "last_observation_date": "2019-04-14",
        "data_arc_in_days": 18,
        "observations_used": 122,
        "orbit_uncertainty": "7",
        "minimum_orbit_intersection": ".0191413",
        "jupiter_tisserand_invariant": "4.244",
        "epoch_osculation": "2459000.5",
        "eccentricity": ".371780784712997",
        "semi_major_axis": "1.617280731935324",
        "inclination": "7.134097879934078",
        "ascending_node_longitude": "186.4387685117036",
        "orbital_period": "751.2362663103409",
        "perihelion_distance": "1.016006832315199",
        "perihelion_argument": "354.5619216041335",
        "aphelion_distance": "2.218554631555449",
        "perihelion_time": "2459317.022360294094",
        "mean_anomaly": "208.3192907265726",
        "mean_motion": ".4792100916108881",
        "equinox": "J2000",
        "orbit_class": {
            "orbit_class_type": "APO",
            "orbit_class_description": "Near-Earth asteroid orbits which cross the Earth’s orbit similar to that of 1862 Apollo",
            "orbit_class_range": "a (semi-major axis) > 1.0 AU; q (perihelion) < 1.017 AU"
        }
    },
    "is_sentry_object": false
}